COMMENT,ORIGINATOR,NORAD_CAT_ID,OBJECT_NAME,OBJECT_TYPE,CLASSIFICATION_TYPE,INTLDES,EPOCH,EPOCH_MICROSECONDS,MEAN_MOTION,ECCENTRICITY,INCLINATION,RA_OF_ASC_NODE,ARG_OF_PERICENTER,MEAN_ANOMALY,EPHEMERIS_TYPE,ELEMENT_SET_NO,REV_AT_EPOCH,BSTAR,MEAN_MOTION_DOT,MEAN_MOTION_DDOT,FILE,TLE_LINE0,TLE_LINE1,TLE_LINE2,OBJECT_ID,OBJECT_NUMBER,SEMIMAJOR_AXIS,PERIOD,APOGEE,PERIGEE
"GENERATED VIA SPACETRACK.ORG API","JSPOC","20362","DELTA 2 R/B(1)","ROCKET BODY","U","89097B","2016-01-13 10:01:31","929888","15.40375997","0.0077732","35.612","5.5928","220.2599","267.0935","0","999","41912","0.00036625","0.00016928","0","1979846","0 DELTA 2 R/B(1)","1 20362U 89097B   16013.41773067  .00016928  00000-0  36625-3 0  9993","2 20362  35.6120   5.5928 0077732 220.2599 267.0935 15.40375997419125","1989-097B","20362","6823.135","93.483","498.038","391.963"
"GENERATED VIA SPACETRACK.ORG API","JSPOC","33373","NIMIQ 4","PAYLOAD","U","08044A","2016-01-13 10:02:11","463936","1.0026595","0.0002649","0.0386","76.4713","237.3393","227.096","0","999","2665","0","-2.23e-06","0","1979849","0 NIMIQ 4","1 33373U 08044A   16013.41818824 -.00000223  00000-0  00000+0 0  9999","2 33373   0.0386  76.4713 0002649 237.3393 227.0960  1.00265950 26650","2008-044A","33373","42166.367","1436.180","35799.402","35777.062"
"GENERATED VIA SPACETRACK.ORG API","JSPOC","26857","ICO F2","PAYLOAD","U","01026A","2016-01-13 10:02:35","930688","3.92441505","0.0016258","44.9486","41.8092","201.3016","222.176","0","999","21181","0","-3.2e-07","0","1979831","0 ICO F2","1 26857U 01026A   16013.41847142 -.00000032  00000-0  00000+0 0  9994","2 26857  44.9486  41.8092 0016258 201.3016 222.1760  3.92441505211810","2001-026A","26857","16977.948","366.933","10627.416","10572.211"
"GENERATED VIA SPACETRACK.ORG API","JSPOC","37143","SL-12 R/B(AUX MOTOR)","ROCKET BODY","U","10041G","2016-01-13 10:02:41","4960","4.25066032","0.5602772","65.1614","23.8281","115.4106","311.6847","0","999","8298","-0.00018549","-4.1e-07","0","1980270","0 SL-12 R/B(AUX MOTOR)","1 37143U 10041G   16013.41853015 -.00000041 +00000-0 -18549-3 0  9999","2 37143 065.1614 023.8281 5602772 115.4106 311.6847 04.25066032082989","2010-041G","37143","16097.715","338.770","18738.763","700.397"
"GENERATED VIA SPACETRACK.ORG API","JSPOC","39013","YAOGAN 16C","PAYLOAD","U","12066C","2016-01-13 10:03:40","938912","13.45145673","0.0103189","63.3849","13.3285","2.1953","357.9504","0","999","15394","8.6304e-05","-3.8e-07","0","1979834","0 YAOGAN 16C","1 39013U 12066C   16013.41922383 -.00000038  00000-0  86304-4 0  9991","2 39013  63.3849  13.3285 0103189   2.1953 357.9504 13.45145673153949","2012-066C","39013","7468.309","107.051","1167.239","1013.109"
"GENERATED VIA SPACETRACK.ORG API","JSPOC","11166","SL-3 R/B","ROCKET BODY","U","78121B","2016-01-13 10:04:04","938240","14.13670607","0.0065575","81.2408","332.6516","306.6416","52.8738","0","999","91035","9.2007e-05","1.89e-06","0","1979849","0 SL-3 R/B","1 11166U 78121B   16013.41950160  .00000189  00000-0  92007-4 0  9991","2 11166  81.2408 332.6516 0065575 306.6416  52.8738 14.13670607910356","1978-121B","11166","7224.975","101.862","894.217","799.462"
"GENERATED VIA SPACETRACK.ORG API","JSPOC","39761","COSMOS 2496","PAYLOAD","U","14028A","2016-01-13 10:04:30","729504","12.42890742","0.0020694","82.4473","333.8677","90.7254","269.6198","0","999","7455","0","1e-07","0","1979849","0 COSMOS 2496","1 39761U 14028A   16013.41980011  .00000010  00000-0  00000+0 0  9996","2 39761  82.4473 333.8677 0020694  90.7254 269.6198 12.42890742 74552","2014-028A","39761","7872.509","115.858","1510.666","1478.083"
"GENERATED VIA SPACETRACK.ORG API","JSPOC","27060","GONETS D1 9","PAYLOAD","U","01058F","2016-01-13 10:05:03","5952","12.629888","0.0007294","82.5413","121.2423","306.1876","53.8536","0","999","64747","-3.1879e-05","5e-08","0","1979852","0 GONETS D1 9","1 27060U 01058F   16013.42017368  .00000005  00000-0 -31879-4 0  9999","2 27060  82.5413 121.2423 0007294 306.1876  53.8536 12.62988800647470","2001-058F","27060","7788.769","114.015","1416.315","1404.953"
"GENERATED VIA SPACETRACK.ORG API","JSPOC","36600","BPA 1/SL-24 R/B","ROCKET BODY","U","10028C","2016-01-13 10:05:28","702176","13.72506356","0.0376024","98.3001","319.2851","89.4194","19.2903","0","999","27951","3.3215e-05","1.8e-07","0","1979848","0 BPA 1/SL-24 R/B","1 36600U 10028C   16013.42047109  .00000018  00000-0  33215-4 0  9991","2 36600  98.3001 319.2851 0376024  89.4194  19.2903 13.72506356279510","2010-028C","36600","7368.723","104.917","1267.670","713.506"
"GENERATED VIA SPACETRACK.ORG API","JSPOC","39059","COSMOS 2484","PAYLOAD","U","13001C","2016-01-13 10:05:49","453728","12.42872634","0.0025723","82.5022","69.3655","62.6619","297.7074","0","999","13573","0","1e-07","0","1979846","0 COSMOS 2484","1 39059U 13001C   16013.42071127  .00000010  00000-0  00000+0 0  9996","2 39059  82.5022  69.3655 0025723  62.6619 297.7074 12.42872634135734","2013-001C","39059","7872.586","115.860","1514.701","1474.200"
"GENERATED VIA SPACETRACK.ORG API","JSPOC","37264","HISPASAT 1E","PAYLOAD","U","10070A","2016-01-13 10:06:57","93696","1.00270798","0.0002079","0.0324","118.3307","141.6875","334.051","0","999","1500","0","-2.19e-06","0","1980270","0 HISPASAT 1E","1 37264U 10070A   16013.42149414 -.00000219 +00000-0 +00000-0 0  9993","2 37264 000.0324 118.3307 0002079 141.6875 334.0510 01.00270798015002","2010-070A","37264","42165.008","1436.111","35795.639","35778.107"
"GENERATED VIA SPACETRACK.ORG API","JSPOC","37934","BREEZE-M R/B","ROCKET BODY","U","11069B","2016-01-13 10:06:57","93696","1.71594585","0.3863589","2.2982","23.0388","88.1004","79.4469","0","999","2467","0","-1.06e-06","0","1980270","0 BREEZE-M R/B","1 37934U 11069B   16013.42149414 -.00000106 +00000-0 +00000-0 0  9991","2 37934 002.2982 023.0388 3863589 088.1004 079.4469 01.71594585024671","2011-069B","37934","29471.311","839.187","34479.679","11706.672"
"GENERATED VIA SPACETRACK.ORG API","JSPOC","31308","ARIANE 5 R/B","ROCKET BODY","U","07016C","2016-01-13 10:07:28","974432","2.48357384","0.7127779","5.661","84.7945","31.76","356.1167","0","999","7521","0.0013593","7.129e-05","0","1980077","0 ARIANE 5 R/B","1 31308U 07016C   16013.42186313  .00007129  00000-0  13593-2 0  9990","2 31308   5.6610  84.7945 7127779  31.7600 356.1167  2.48357384 75217","2007-016C","31308","23032.997","579.809","33072.273","237.450"
"GENERATED VIA SPACETRACK.ORG API","JSPOC","31308","ARIANE 5 R/B","ROCKET BODY","U","07016C","2016-01-13 10:07:28","974432","2.48357384","0.7127779","5.661","84.7945","31.76","356.1167","0","999","7518","0.0013593","7.129e-05","0","1980270","0 ARIANE 5 R/B","1 31308U 07016C   16013.42186313 +.00007129 +00000-0 +13593-2 0  9990","2 31308 005.6610 084.7945 7127779 031.7600 356.1167 02.48357384075183","2007-016C","31308","23032.997","579.809","33072.273","237.450"
"GENERATED VIA SPACETRACK.ORG API","JSPOC","13648","COSMOS 1420","PAYLOAD","U","82109A","2016-01-13 10:07:36","315840","14.3372439","0.0021244","73.9959","327.7466","242.0423","252.3635","0","999","73403","3.4704e-05","7e-07","0","1979849","0 COSMOS 1420","1 13648U 82109A   16013.42194810  .00000070  00000-0  34704-4 0  9991","2 13648  73.9959 327.7466 0021244 242.0423 252.3635 14.33724390734030","1982-109A","13648","7157.445","100.437","794.515","764.105"
"GENERATED VIA SPACETRACK.ORG API","JSPOC","573","TELSTAR 2 (A-41)","PAYLOAD","U","63013A","2016-01-13 10:07:45","870816","6.39260125","0.4010555","42.7788","42.3659","195.6426","334.4886","0","999","34284","-0.0010487","-9.7e-07","0","1979842","0 TELSTAR 2 (A-41)","1 00573U 63013A   16013.42205869 -.00000097  00000-0 -10487-2 0  9995","2 00573  42.7788  42.3659 4010555 195.6426 334.4886  6.39260125342846","1963-013A","573","12263.565","225.260","10803.801","967.060"
"GENERATED VIA SPACETRACK.ORG API","JSPOC","12091","COSMOS 1226","PAYLOAD","U","80099A","2016-01-13 10:07:56","110944","13.74461462","0.0032395","82.9431","303.1056","235.0246","263.6752","0","999","75991","4.7791e-05","6e-07","0","1979819","0 COSMOS 1226","1 12091U 80099A   16013.42217721  .00000060  00000-0  47791-4 0  9994","2 12091  82.9431 303.1056 0032395 235.0246 263.6752 13.74461462759914","1980-099A","12091","7361.734","104.768","1007.447","959.750"
"GENERATED VIA SPACETRACK.ORG API","JSPOC","38710","TET-1","PAYLOAD","U","12039D","2016-01-13 10:08:10","965696","15.39692798","8.95e-05","97.4912","307.4613","18.8865","341.2414","0","999","19395","0.00024948","9.769e-05","0","1979846","0 TET-1","1 38710U 12039D   16013.42234914  .00009769  00000-0  24948-3 0  9995","2 38710  97.4912 307.4613 0000895  18.8865 341.2414 15.39692798193950","2012-039D","38710","6825.154","93.525","447.629","446.408"
"GENERATED VIA SPACETRACK.ORG API","JSPOC","27056","COSMOS 2385","PAYLOAD","U","01058B","2016-01-13 10:08:47","571648","12.605029","0.0005952","82.5364","134.8605","168.8241","191.298","0","999","64620","-0.00014467","-1.5e-07","0","1979821","0 COSMOS 2385","1 27056U 01058B   16013.42277282 -.00000015  00000-0 -14467-3 0  9992","2 27056  82.5364 134.8605 0005952 168.8241 191.2980 12.60502900646201","2001-058B","27056","7799.006","114.240","1425.513","1416.229"
"GENERATED VIA SPACETRACK.ORG API","JSPOC","20835","SMS 2 AKM","ROCKET BODY","U","75011F","2016-01-13 10:09:01","24128","0.98586841","0.0094706","12.2991","320.7834","24.2605","219.8259","0","999","7916","0","-1.35e-06","0","1979826","0 SMS 2 AKM","1 20835U 75011F   16013.42292852 -.00000135  00000-0  00000+0 0  9996","2 20835  12.2991 320.7834 0094706  24.2605 219.8259  0.98586841 79164","1975-011F","20835","42643.797","1460.641","36669.525","35861.800"
